{
  "type": "FeatureCollection",
  "features": [
    {
      "type": "Feature",
      "properties": {
        "norad_id": 66546,
        "name": "SHIJIAN-30B",
        "group": "last-30-days",
        "lat": -4.877566885954067,
        "lon": 152.4622027488404,
        "alt_km": 528.2215261658675,
        "timestamp": "2025-12-13T15:35:10.875999+00:00",
        "meta_object_name": "SHIJIAN-30B",
        "meta_object_id": "2025-266B",
        "meta_epoch": "2025-12-12T22:56:29.310720",
        "meta_mean_motion": 15.15421149,
        "meta_eccentricity": 0.00105145,
        "meta_inclination": 51.7964,
        "meta_ra_of_asc_node": 331.8584,
        "meta_arg_of_pericenter": 0.505,
        "meta_mean_anomaly": 359.5935,
        "meta_ephemeris_type": 0,
        "meta_classification_type": "U",
        "meta_norad_cat_id": 66546,
        "meta_element_set_no": 999,
        "meta_rev_at_epoch": 361,
        "meta_bstar": 0.00094489076,
        "meta_mean_motion_dot": 0.00017837,
        "meta_mean_motion_ddot": 0,
        "tle_line1": "1 66546U 25266B   25346.95589480  .00017837  00000+0  94489-3 0  9998",
        "tle_line2": "2 66546  51.7964 331.8584 0010514   0.5050 359.5935 15.15421149  3616"
      },
      "geometry": {
        "type": "Point",
        "coordinates": [
          152.4622027488404,
          -4.877566885954067
        ]
      }
    },
    {
      "type": "Feature",
      "properties": {
        "norad_id": 66547,
        "name": "SHIJIAN-30C",
        "group": "last-30-days",
        "lat": -2.9869102756790666,
        "lon": 150.9703222844223,
        "alt_km": 528.6478934164688,
        "timestamp": "2025-12-13T15:35:10.876011+00:00",
        "meta_object_name": "SHIJIAN-30C",
        "meta_object_id": "2025-266C",
        "meta_epoch": "2025-12-12T22:57:05.114880",
        "meta_mean_motion": 15.1537623,
        "meta_eccentricity": 0.00113864,
        "meta_inclination": 51.7973,
        "meta_ra_of_asc_node": 331.8628,
        "meta_arg_of_pericenter": 352.2271,
        "meta_mean_anomaly": 7.8527,
        "meta_ephemeris_type": 0,
        "meta_classification_type": "U",
        "meta_norad_cat_id": 66547,
        "meta_element_set_no": 999,
        "meta_rev_at_epoch": 361,
        "meta_bstar": 0.00085389821,
        "meta_mean_motion_dot": 0.00016068,
        "meta_mean_motion_ddot": 0,
        "tle_line1": "1 66547U 25266C   25346.95630920  .00016068  00000+0  85390-3 0  9991",
        "tle_line2": "2 66547  51.7973 331.8628 0011386 352.2271   7.8527 15.15376230  3616"
      },
      "geometry": {
        "type": "Point",
        "coordinates": [
          150.9703222844223,
          -2.9869102756790666
        ]
      }
    },
    {
      "type": "Feature",
      "properties": {
        "norad_id": 66548,
        "name": "CZ-2C R/B",
        "group": "last-30-days",
        "lat": 11.777307887612631,
        "lon": -23.691879896994806,
        "alt_km": 528.6214986889481,
        "timestamp": "2025-12-13T15:35:10.876022+00:00",
        "meta_object_name": "CZ-2C R/B",
        "meta_object_id": "2025-266D",
        "meta_epoch": "2025-12-12T23:50:44.359008",
        "meta_mean_motion": 15.30184769,
        "meta_eccentricity": 0.00838842,
        "meta_inclination": 52.0548,
        "meta_ra_of_asc_node": 330.071,
        "meta_arg_of_pericenter": 173.8731,
        "meta_mean_anomaly": 186.3301,
        "meta_ephemeris_type": 0,
        "meta_classification_type": "U",
        "meta_norad_cat_id": 66548,
        "meta_element_set_no": 999,
        "meta_rev_at_epoch": 365,
        "meta_bstar": 0.00045136232,
        "meta_mean_motion_dot": 0.00014522,
        "meta_mean_motion_ddot": 0,
        "tle_line1": "1 66548U 25266D   25346.99356897  .00014522  00000+0  45136-3 0  9991",
        "tle_line2": "2 66548  52.0548 330.0710 0083884 173.8731 186.3301 15.30184769  3650"
      },
      "geometry": {
        "type": "Point",
        "coordinates": [
          -23.691879896994806,
          11.777307887612631
        ]
      }
    },
    {
      "type": "Feature",
      "properties": {
        "norad_id": 66549,
        "name": "SHIJIAN-28",
        "group": "last-30-days",
        "lat": 1.8723662981158185,
        "lon": 73.29461434103303,
        "alt_km": 35782.826315683895,
        "timestamp": "2025-12-13T15:35:10.876034+00:00",
        "meta_object_name": "SHIJIAN-28",
        "meta_object_id": "2025-277A",
        "meta_epoch": "2025-12-12T22:12:21.860928",
        "meta_mean_motion": 1.00272348,
        "meta_eccentricity": 7.859e-05,
        "meta_inclination": 5.018,
        "meta_ra_of_asc_node": 274.9534,
        "meta_arg_of_pericenter": 131.7574,
        "meta_mean_anomaly": 125.1015,
        "meta_ephemeris_type": 0,
        "meta_classification_type": "U",
        "meta_norad_cat_id": 66549,
        "meta_element_set_no": 999,
        "meta_rev_at_epoch": 28,
        "meta_bstar": 0,
        "meta_mean_motion_dot": -3.47e-06,
        "meta_mean_motion_ddot": 0,
        "tle_line1": "1 66549U 25277A   25346.92525302 -.00000347  00000+0  00000+0 0  9994",
        "tle_line2": "2 66549   5.0180 274.9534 0000785 131.7574 125.1015  1.00272348   280"
      },
      "geometry": {
        "type": "Point",
        "coordinates": [
          73.29461434103303,
          1.8723662981158185
        ]
      }
    },
    {
      "type": "Feature",
      "properties": {
        "norad_id": 66550,
        "name": "CZ-7A R/B",
        "group": "last-30-days",
        "lat": -7.261300722716504,
        "lon": -120.2907243523127,
        "alt_km": 17304.45817903139,
        "timestamp": "2025-12-13T15:35:10.876046+00:00",
        "meta_object_name": "CZ-7A R/B",
        "meta_object_id": "2025-277B",
        "meta_epoch": "2025-12-12T06:12:30.080736",
        "meta_mean_motion": 2.67691101,
        "meta_eccentricity": 0.70327133,
        "meta_inclination": 14.3853,
        "meta_ra_of_asc_node": 270.1306,
        "meta_arg_of_pericenter": 188.5498,
        "meta_mean_anomaly": 145.8941,
        "meta_ephemeris_type": 0,
        "meta_classification_type": "U",
        "meta_norad_cat_id": 66550,
        "meta_element_set_no": 999,
        "meta_rev_at_epoch": 33,
        "meta_bstar": 0.0023540445,
        "meta_mean_motion_dot": 0.01686496,
        "meta_mean_motion_ddot": -2.63066e-07,
        "tle_line1": "1 66550U 25277B   25346.25868149  .01686496 -26307-6  23540-2 0  9999",
        "tle_line2": "2 66550  14.3853 270.1306 7032713 188.5498 145.8941  2.67691101   334"
      },
      "geometry": {
        "type": "Point",
        "coordinates": [
          -120.2907243523127,
          -7.261300722716504
        ]
      }
    },
    {
      "type": "Feature",
      "properties": {
        "norad_id": 66551,
        "name": "USA 568",
        "group": "last-30-days",
        "lat": -46.631183786810794,
        "lon": 130.44050002004514,
        "alt_km": 147.86299363934177,
        "timestamp": "2025-12-13T15:35:10.876057+00:00",
        "meta_object_name": "USA 568",
        "meta_object_id": "2024-134K",
        "meta_epoch": "2025-12-02T16:00:03.000096",
        "meta_mean_motion": 15.87051116,
        "meta_eccentricity": 7.17e-05,
        "meta_inclination": 53.1571,
        "meta_ra_of_asc_node": 236.7807,
        "meta_arg_of_pericenter": 110.7411,
        "meta_mean_anomaly": 313.9012,
        "meta_ephemeris_type": 0,
        "meta_classification_type": "U",
        "meta_norad_cat_id": 66551,
        "meta_element_set_no": 999,
        "meta_rev_at_epoch": 262,
        "meta_bstar": -0.0074303,
        "meta_mean_motion_dot": -0.01709685,
        "meta_mean_motion_ddot": 0,
        "tle_line1": "1 66551U 24134K   25336.66670139 -.01709685  00000+0 -74303-2 0  9990",
        "tle_line2": "2 66551  53.1571 236.7807 0000717 110.7411 313.9012 15.87051116  2624"
      },
      "geometry": {
        "type": "Point",
        "coordinates": [
          130.44050002004514,
          -46.631183786810794
        ]
      }
    },
    {
      "type": "Feature",
      "properties": {
        "norad_id": 66554,
        "name": "GLOBAL-33",
        "group": "last-30-days",
        "lat": 26.76721439605416,
        "lon": 85.80796173573779,
        "alt_km": 463.85094127406046,
        "timestamp": "2025-12-13T15:35:10.876067+00:00",
        "meta_object_name": "GLOBAL-33",
        "meta_object_id": "2025-267A",
        "meta_epoch": "2025-12-12T22:11:15.097056",
        "meta_mean_motion": 15.31628839,
        "meta_eccentricity": 0.00041818,
        "meta_inclination": 42.0218,
        "meta_ra_of_asc_node": 55.9266,
        "meta_arg_of_pericenter": 56.2465,
        "meta_mean_anomaly": 303.8771,
        "meta_ephemeris_type": 0,
        "meta_classification_type": "U",
        "meta_norad_cat_id": 66554,
        "meta_element_set_no": 999,
        "meta_rev_at_epoch": 343,
        "meta_bstar": 0.0003014631,
        "meta_mean_motion_dot": 9.167e-05,
        "meta_mean_motion_ddot": 0,
        "tle_line1": "1 66554U 25267A   25346.92448029  .00009167  00000+0  30146-3 0  9995",
        "tle_line2": "2 66554  42.0218  55.9266 0004181  56.2465 303.8771 15.31628839  3435"
      },
      "geometry": {
        "type": "Point",
        "coordinates": [
          85.80796173573779,
          26.76721439605416
        ]
      }
    }
  ]
}